[{"OBJECT_NAME":"STARLINK-34424","OBJECT_ID":"2025-123E","EPOCH":"2026-03-09T22:00:01.999584","MEAN_MOTION":14.98349951,"ECCENTRICITY":0.0004039,"INCLINATION":70.0008,"RA_OF_ASC_NODE":194.059,"ARG_OF_PERICENTER":276.3711,"MEAN_ANOMALY":238.0798,"EPHEMERIS_TYPE":0,"CLASSIFICATION_TYPE":"U","NORAD_CAT_ID":64295,"ELEMENT_SET_NO":999,"REV_AT_EPOCH":556,"BSTAR":-0.002329989,"MEAN_MOTION_DOT":-0.00027801,"MEAN_MOTION_DDOT":0},{"OBJECT_NAME":"FENGYUN 1C DEB","OBJECT_ID":"1999-025AEY","EPOCH":"2026-03-09T19:16:38.619264","MEAN_MOTION":14.92699645,"ECCENTRICITY":0.00328142,"INCLINATION":98.9116,"RA_OF_ASC_NODE":104.6855,"ARG_OF_PERICENTER":181.0852,"MEAN_ANOMALY":235.9591,"EPHEMERIS_TYPE":0,"CLASSIFICATION_TYPE":"U","NORAD_CAT_ID":30437,"ELEMENT_SET_NO":999,"REV_AT_EPOCH":482,"BSTAR":0.0024447577,"MEAN_MOTION_DOT":0.00025496,"MEAN_MOTION_DDOT":0}]
